STARLINK-30333
1 57702U 23129E   26061.16668981  .00688086  00000+0  24336-1 0  9992
2 57702  43.0044 160.0120 0001314 276.0827 186.8768 15.26247586  5813
